SL-14 R/B               
1 20511U 90018B   26165.85113029  .00000338  00000+0  39306-4 0  9994
2 20511  82.5209 132.2911 0017317 128.8598 231.4165 14.82214762936979
HST                     
1 20580U 90037B   26165.14417512  .00006344  00000+0  19999-3 0  9995
2 20580  28.4715 101.3706 0001912 110.8714 249.2086 15.30716351788104
SL-16 R/B               
1 20625U 90046B   26165.82743390  .00000200  00000+0  12769-3 0  9999
2 20625  70.9997  93.9040 0013510 165.2711 194.8808 14.15025696862133
COSMOS 2084             
1 20663U 90055A   26165.87047595  .00001913  00000+0  14393-3 0  9997
2 20663  62.7909   3.9985 0005541 275.3278  84.7190 15.06107626950956
SL-6 R/B(2)             
1 20666U 90055D   26165.65577205  .00001398  00000+0  11378-3 0  9999
2 20666  62.7824 283.9906 0040239   4.7775 355.3700 15.03995534952773
SL-8 R/B                
1 20775U 90078B   26165.71412409  .00017757  00000+0  49998-3 0  9991
2 20775  82.9001 163.8791 0351527  46.8068 316.1951 14.92222287823753
SL-8 R/B                
1 21088U 91006B   26165.88404110  .00000038  00000+0  22476-4 0  9996
2 21088  82.9424  97.7470 0023597 120.6850 299.5322 13.77505688777454
OKEAN-3                 
1 21397U 91039A   26165.61265404  .00002373  00000+0  16364-3 0  9999
2 21397  82.5158 242.8775 0014301   7.6692 352.4751 15.05312594879610
COSMOS 2151             
1 21422U 91042A   26165.79229729  .00001614  00000+0  12603-3 0  9990
2 21422  82.4960 349.9924 0013835  91.1579 269.1230 15.00431978877759
SL-14 R/B               
1 21423U 91042B   26165.85716679  .00000324  00000+0  37947-4 0  9999
2 21423  82.4926 129.0806 0015464 283.3241  76.6249 14.81901196867469
ERS-1                   
1 21574U 91050A   26165.80155571  .00000314  00000+0  11506-3 0  9999
2 21574  98.7797 186.4412 0030709 274.3306  85.4372 14.39516684829700
ARIANE 40 R/B           
1 21610U 91050F   26165.62203022  .00000246  00000+0  85921-4 0  9992
2 21610  98.1876 214.1388 0004165 126.7165 233.4409 14.42955659832976
INTERCOSMOS 25          
1 21819U 91086A   26165.47066083  .00000594  00000+0  11849-3 0  9992
2 21819  82.6052 251.4538 1484112 268.2589  74.8557 12.12192313508414
SL-8 R/B                
1 21876U 92008B   26165.82164662  .00000138  00000+0  12597-3 0  9996
2 21876  82.9264 195.5464 0033681 221.4701 312.2175 13.75976282722775
SL-8 R/B                
1 21938U 92020B   26165.87317156  .00000054  00000+0  39819-4 0  9996
2 21938  82.9306  81.5761 0029870  28.8991  38.5926 13.75548578714495
USA 81                  
1 21949U 92023A   26165.82988081  .00000151  00000+0  48536-4 0  9991
2 21949  85.0076  75.3679 0002774  86.6931 273.4579 14.32397633108695
COSMOS 2219             
1 22219U 92076A   26165.71480472  .00000211  00000+0  13519-3 0  9998
2 22219  71.0577 175.2404 0016487  48.1870 312.0658 14.14097507732096
SL-16 R/B               
1 22220U 92076B   26165.84904235  .00000081  00000+0  64205-4 0  9996
2 22220  71.0004 343.7067 0014619 301.7060 158.7689 14.16871439735597
COSMOS 2221             
1 22236U 92080A   26165.79880648  .00001270  00000+0  10934-3 0  9993
2 22236  82.5030 186.0529 0013091 220.7975 139.2268 14.96527783795310
SL-16 R/B               
1 22285U 92093B   26165.69833955 -.00000302  00000+0 -13009-3 0  9992
2 22285  71.0198 160.6164 0004106 192.6629 167.4392 14.15462403726880
COSMOS 2228             
1 22286U 92094A   26165.81594382  .00001883  00000+0  15865-3 0  9991
2 22286  82.5173 144.3141 0017106 340.6325  19.4245 14.97578958790592
SL-16 R/B               
1 22566U 93016B   26165.81951794  .00000323  00000+0  19007-3 0  9991
2 22566  71.0084  11.1806 0010380 186.7971 173.3012 14.15312736715914
COSMOS 2242             
1 22626U 93024A   26165.57376728  .00001539  00000+0  13159-3 0  9990
2 22626  82.5180 174.0432 0015596 345.4540  14.6231 14.96896361794882
SL-16 R/B               
1 22803U 93059B   26165.73728169  .00000105  00000+0  75447-4 0  9990
2 22803  70.9887 166.4701 0015147  58.1973 302.0624 14.17247928693282
ARIANE 40 R/B           
1 22830U 93061H   26165.76141066  .00000158  00000+0  73732-4 0  9994
2 22830  98.4819 232.6688 0010616   3.6338 356.4921 14.32906963708006
COSMOS 2278             
1 23087U 94023A   26165.84234323  .00000182  00000+0  11974-3 0  9992
2 23087  71.0548 331.8310 0010614 245.9333 114.0680 14.14397380658545
SL-16 R/B               
1 23088U 94023B   26165.63308124  .00000328  00000+0  19371-3 0  9992
2 23088  70.9994 227.2953 0002933 188.6059 171.5013 14.15023631659807
SL-16 R/B               
1 23343U 94074B   26165.65462000  .00000361  00000+0  54826-4 0  9990
2 23343  97.6992 192.4811 0005079 264.3787 208.2657 14.79500409701583
SL-16 R/B               
1 23405U 94077B   26165.64749667 -.00000048  00000+0  10165-7 0  9992
2 23405  70.9808 148.5054 0002814 329.8430  30.2531 14.15571722629959
ARIANE 40+ R/B          
1 23561U 95021B   26165.84108037  .00000221  00000+0  84192-4 0  9997
2 23561  98.4411 235.9498 0006285 200.8567 274.6690 14.39832102633228
SL-16 R/B               
1 23705U 95058B   26165.87117156  .00000256  00000+0  15524-3 0  9992
2 23705  71.0218 336.2211 0013642 323.6825  36.3371 14.15507081581606
