OBJECT_NAME,OBJECT_ID,EPOCH,MEAN_MOTION,ECCENTRICITY,INCLINATION,RA_OF_ASC_NODE,ARG_OF_PERICENTER,MEAN_ANOMALY,EPHEMERIS_TYPE,CLASSIFICATION_TYPE,NORAD_CAT_ID,ELEMENT_SET_NO,REV_AT_EPOCH,BSTAR,MEAN_MOTION_DOT,MEAN_MOTION_DDOT
SL-14 R/B,1990-018B,2026-06-14T20:25:37.657056,14.82214762,.0017317,82.5209,132.2911,128.8598,231.4165,0,U,20511,999,93697,.39306E-4,.338E-5,0
HST,1990-037B,2026-06-14T03:27:36.730368,15.30716351,.00019122,28.4715,101.3706,110.8714,249.2086,0,U,20580,999,78810,.19998963E-3,.6344E-4,0
SL-16 R/B,1990-046B,2026-06-14T19:51:30.288960,14.15025696,.001351,70.9997,93.9040,165.2711,194.8808,0,U,20625,999,86213,.12769E-3,.2E-5,0
COSMOS 2084,1990-055A,2026-06-14T20:53:29.122080,15.06107626,.0005541,62.7909,3.9985,275.3278,84.7190,0,U,20663,999,95095,.14393E-3,.1913E-4,0
SL-6 R/B(2),1990-055D,2026-06-14T15:44:18.705120,15.03995534,.0040239,62.7824,283.9906,4.7775,355.3700,0,U,20666,999,95277,.11378E-3,.1398E-4,0
SL-8 R/B,1990-078B,2026-06-14T17:08:20.321376,14.92222287,.0351527,82.9001,163.8791,46.8068,316.1951,0,U,20775,999,82375,.49998E-3,.17757E-3,0
SL-8 R/B,1991-006B,2026-06-14T21:13:01.151040,13.77505688,.0023597,82.9424,97.7470,120.6850,299.5322,0,U,21088,999,77745,.22476E-4,.38E-6,0
OKEAN-3,1991-039A,2026-06-14T14:42:13.309056,15.05312594,.0014301,82.5158,242.8775,7.6692,352.4751,0,U,21397,999,87961,.16364E-3,.2373E-4,0
COSMOS 2151,1991-042A,2026-06-14T19:00:54.485856,15.00431978,.0013835,82.4960,349.9924,91.1579,269.1230,0,U,21422,999,87775,.12603E-3,.1614E-4,0
SL-14 R/B,1991-042B,2026-06-14T20:34:19.210656,14.81901196,.0015464,82.4926,129.0806,283.3241,76.6249,0,U,21423,999,86746,.37947E-4,.324E-5,0
ERS-1,1991-050A,2026-06-14T19:14:14.413344,14.39516684,.0030709,98.7797,186.4412,274.3306,85.4372,0,U,21574,999,82970,.11506E-3,.314E-5,0
ARIANE 40 R/B,1991-050F,2026-06-14T14:55:43.411008,14.42955659,.0004165,98.1876,214.1388,126.7165,233.4409,0,U,21610,999,83297,.85921E-4,.246E-5,0
INTERCOSMOS 25,1991-086A,2026-06-14T11:17:45.095712,12.12192313,.14841129,82.6052,251.4538,268.2589,74.8557,0,U,21819,999,50841,.11849233E-3,.594E-5,0
SL-8 R/B,1992-008B,2026-06-14T19:43:10.267968,13.75976282,.0033681,82.9264,195.5464,221.4701,312.2175,0,U,21876,999,72277,.12597E-3,.138E-5,0
SL-8 R/B,1992-020B,2026-06-14T20:57:22.022784,13.75548578,.002987,82.9306,81.5761,28.8991,38.5926,0,U,21938,999,71449,.39819E-4,.54E-6,0
USA 81,1992-023A,2026-06-14T19:55:01.701984,14.32397633,.0002774,85.0076,75.3679,86.6931,273.4579,0,U,21949,999,10869,.48536E-4,.151E-5,0
COSMOS 2219,1992-076A,2026-06-14T17:09:19.127808,14.14097507,.0016487,71.0577,175.2404,48.1870,312.0658,0,U,22219,999,73209,.13519E-3,.211E-5,0
SL-16 R/B,1992-076B,2026-06-14T20:22:37.259040,14.16871439,.0014619,71.0004,343.7067,301.7060,158.7689,0,U,22220,999,73559,.64205E-4,.81E-6,0
COSMOS 2221,1992-080A,2026-06-14T19:10:16.879872,14.96527783,.0013091,82.5030,186.0529,220.7975,139.2268,0,U,22236,999,79531,.10934E-3,.127E-4,0
SL-16 R/B,1992-093B,2026-06-14T16:45:36.537120,14.15462403,.0004106,71.0198,160.6164,192.6629,167.4392,0,U,22285,999,72688,-.13009E-3,-.302E-5,0
COSMOS 2228,1992-094A,2026-06-14T19:34:57.546048,14.97578958,.0017106,82.5173,144.3141,340.6325,19.4245,0,U,22286,999,79059,.15865E-3,.1883E-4,0
SL-16 R/B,1993-016B,2026-06-14T19:40:06.350016,14.15312736,.001038,71.0084,11.1806,186.7971,173.3012,0,U,22566,999,71591,.19007E-3,.323E-5,0
COSMOS 2242,1993-024A,2026-06-14T13:46:13.492992,14.96896361,.0015596,82.5180,174.0432,345.4540,14.6231,0,U,22626,999,79488,.13159E-3,.1539E-4,0
SL-16 R/B,1993-059B,2026-06-14T17:41:41.138016,14.17247928,.0015147,70.9887,166.4701,58.1973,302.0624,0,U,22803,999,69328,.75447E-4,.105E-5,0
ARIANE 40 R/B,1993-061H,2026-06-14T18:16:25.881024,14.32906963,.0010616,98.4819,232.6688,3.6338,356.4921,0,U,22830,999,70800,.73732E-4,.158E-5,0
COSMOS 2278,1994-023A,2026-06-14T20:12:58.455072,14.14397380,.0010614,71.0548,331.8310,245.9333,114.0680,0,U,23087,999,65854,.11974E-3,.182E-5,0
SL-16 R/B,1994-023B,2026-06-14T15:11:38.219136,14.15023631,.0002933,70.9994,227.2953,188.6059,171.5013,0,U,23088,999,65980,.19371E-3,.328E-5,0
SL-16 R/B,1994-074B,2026-06-14T15:42:39.168000,14.79500409,.0005079,97.6992,192.4811,264.3787,208.2657,0,U,23343,999,70158,.54826E-4,.361E-5,0
SL-16 R/B,1994-077B,2026-06-14T15:32:23.712288,14.15571722,.0002814,70.9808,148.5054,329.8430,30.2531,0,U,23405,999,62995,.10165E-7,-.48E-6,0
ARIANE 40+ R/B,1995-021B,2026-06-14T20:11:09.343968,14.39832102,.0006285,98.4411,235.9498,200.8567,274.6690,0,U,23561,999,63322,.84192E-4,.221E-5,0
SL-16 R/B,1995-058B,2026-06-14T20:54:29.222784,14.15507081,.0013642,71.0218,336.2211,323.6825,36.3371,0,U,23705,999,58160,.15524E-3,.256E-5,0
